GPS BIIR-2  (PRN 13)    
1 24876U 97035A   26087.43169227  .00000051  00000+0  00000+0 0  9992
2 24876  55.9500 101.7308 0098722  56.1329 304.8527  2.00563873210339
GPS BIIR-5  (PRN 22)    
1 26407U 00040A   26087.53223389 -.00000034  00000+0  00000+0 0  9997
2 26407  54.8698 218.3638 0122223 302.5125  64.7596  2.00569122188339
GPS BIIR-8  (PRN 16)    
1 27663U 03005A   26088.08100477 -.00000039  00000+0  00000+0 0  9994
2 27663  54.9007 218.1499 0148521  52.8613 126.2596  2.00564840169704
GPS BIIR-11 (PRN 19)    
1 28190U 04009A   26087.36597193 -.00000001  00000+0  00000+0 0  9999
2 28190  54.8974 278.9506 0112157 169.7670   8.2543  2.00557238161326
GPS BIIR-13 (PRN 02)    
1 28474U 04045A   26085.30519351 -.00000073  00000+0  00000+0 0  9995
2 28474  55.1822 328.2360 0170517 313.6726 241.0281  2.00574367156760
GPS BIIRM-1 (PRN 17)    
1 28874U 05038A   26087.36787354  .00000000  00000+0  00000+0 0  9999
2 28874  54.9447 276.4371 0128190 295.6323 268.7932  2.00571249150211
GPS BIIRM-2 (PRN 31)    
1 29486U 06042A   26087.96304715  .00000002  00000+0  00000+0 0  9999
2 29486  54.6992 154.5249 0106360  53.1327 118.3397  2.00574181142785
GPS BIIRM-3 (PRN 12)    
1 29601U 06052A   26087.64548781 -.00000036  00000+0  00000+0 0  9995
2 29601  54.9511 217.1971 0087291  89.8188 271.1436  2.00553221141798
GPS BIIRM-4 (PRN 15)    
1 32260U 07047A   26087.95129578  .00000025  00000+0  00000+0 0  9995
2 32260  54.0359  83.3707 0163986  86.1699 275.7270  2.00559375135208
GPS BIIRM-5 (PRN 29)    
1 32384U 07062A   26088.02562455 -.00000007  00000+0  00000+0 0  9994
2 32384  55.0963 277.3729 0033722 161.1106  20.0101  2.00555011133909
GPS BIIRM-6 (PRN 07)    
1 32711U 08012A   26086.37275070 -.00000009  00000+0  00000+0 0  9996
2 32711  54.4839 153.1942 0208278 246.5928 111.2592  2.00569963132116
GPS BIIRM-8 (PRN 05)    
1 35752U 09043A   26087.58590830 -.00000085  00000+0  00000+0 0  9991
2 35752  56.1631  30.6179 0052264  80.8092  90.0384  2.00558801121746
GPS BIIF-1  (PRN 25)    
1 36585U 10022A   26087.71716311 -.00000041  00000+0  00000+0 0  9996
2 36585  54.2836 211.8024 0127061  66.0086 316.4344  2.00558387115985
GPS BIIF-3  (PRN 24)    
1 38833U 12053A   26086.05261588 -.00000004  00000+0  00000+0 0  9996
2 38833  53.5685 146.9649 0177237  64.9128 296.9786  2.00566077 97797
GPS BIIF-4  (PRN 27)    
1 39166U 13023A   26087.91205175 -.00000006  00000+0  00000+0 0  9992
2 39166  54.5680 272.2416 0141937  50.3073 310.9330  2.00563944 94276
GPS BIIF-5  (PRN 30)    
1 39533U 14008A   26087.41311887 -.00000002  00000+0  00000+0 0  9993
2 39533  53.6397 152.6153 0083084 229.1635 130.1722  2.00554546 88061
GPS BIIF-6  (PRN 06)    
1 39741U 14026A   26087.19137739 -.00000084  00000+0  00000+0 0  9991
2 39741  56.5350 334.6726 0039518 325.7427  34.0463  2.00566865 86919
